#   EUTELSAT 1-F1 (ECS1)## fig lyddane choice in GSFC at 2080 min
# 0 2880 120
1 14128U 83058A   06176.02844893 -.00000158  00000-0  10000-3 0  9627
2 14128  11.4384  35.2134 0011562  26.4582 333.5652  0.98870114 46093
